H1 CPF 01  gfz 2022 04 16 12  6062 terrasarx 
H2 0702601  6201 31698    2022 04 16 12 59 42 2022 04 21 00 00 42   120 1 1  0 0 0
H9
10 0 59689  32382.000000  0    3560929.988  -4258016.462  -4087737.980
10 0 59689  32502.000000  0    3042108.219  -3933539.848  -4774906.618
10 0 59689  32622.000000  0    2476764.026  -3531199.200  -5378481.953
10 0 59689  32742.000000  0    1876076.853  -3057335.062  -5887994.477
10 0 59689  32862.000000  0    1251692.973  -2519709.182  -6294629.018
10 0 59689  32982.000000  0     615499.777  -1927373.603  -6591367.738
10 0 59689  33102.000000  0     -20598.986  -1290514.999  -6773100.681
10 0 59689  33222.000000  0    -644901.759   -620279.333  -6836703.543
10 0 59689  33342.000000  0   -1246118.728     71420.130  -6781084.834
10 0 59689  33462.000000  0   -1813571.408    772109.461  -6607202.022
10 0 59689  33582.000000  0   -2337377.841   1468973.204  -6318046.603
10 0 59689  33702.000000  0   -2808621.119   2149082.933  -5918598.265
10 0 59689  33822.000000  0   -3219500.508   2799632.348  -5415748.964
10 0 59689  33942.000000  0   -3563462.632   3408176.803  -4818195.940
10 0 59689  34062.000000  0   -3835310.816   3962872.240  -4136302.352
10 0 59689  34182.000000  0   -4031288.145   4452708.502  -3381926.512
10 0 59689  34302.000000  0   -4149132.073   4867732.141  -2568223.567
10 0 59689  34422.000000  0   -4188101.711   5199254.250  -1709421.492
10 0 59689  34542.000000  0   -4148975.719   5440038.430   -820574.074
10 0 59689  34662.000000  0   -4034019.069   5584464.231     82706.688
10 0 59689  34782.000000  0   -3846918.685   5628658.009    984531.058
10 0 59689  34902.000000  0   -3592690.537   5570591.306   1869019.508
10 0 59689  35022.000000  0   -3277559.129   5410141.508   2720593.210
10 0 59689  35142.000000  0   -2908811.079   5149111.781   3524257.249
10 0 59689  35262.000000  0   -2494629.718   4791212.660   4265869.756
10 0 59689  35382.000000  0   -2043914.275   4342006.178   4932394.130
10 0 59689  35502.000000  0   -1566088.471   3808813.150   5512129.000
10 0 59689  35622.000000  0   -1070902.093   3200586.053   5994911.639
10 0 59689  35742.000000  0    -568231.286   2527751.016   6372290.903
10 0 59689  35862.000000  0     -67882.105   1802023.285   6637668.361
10 0 59689  35982.000000  0     420599.857   1036200.190   6786408.310
10 0 59689  36102.000000  0     888110.998    243933.247   6815913.278
10 0 59689  36222.000000  0    1326158.181   -560514.251   6725666.252
10 0 59689  36342.000000  0    1727012.330  -1362523.428   6517240.239
10 0 59689  36462.000000  0    2083844.901  -2147384.687   6194272.639
10 0 59689  36582.000000  0    2390845.187  -2900567.837   5762406.761
10 0 59689  36702.000000  0    2643316.791  -3607993.165   5229198.630
10 0 59689  36822.000000  0    2837750.603  -4256297.830   4603990.224
10 0 59689  36942.000000  0    2971874.250  -4833093.719   3897751.710
10 0 59689  37062.000000  0    3044676.450  -5327211.185   3122891.677
10 0 59689  37182.000000  0    3056405.172  -5728923.102   2293040.141
10 0 59689  37302.000000  0    3008538.889  -6030143.743   1422805.963
10 0 59689  37422.000000  0    2903731.819  -6224596.256    527515.108
10 0 59689  37542.000000  0    2745736.169  -6307946.561   -377065.165
10 0 59689  37662.000000  0    2539300.655  -6277900.121  -1275013.472
10 0 59689  37782.000000  0    2290047.948  -6134254.814  -2150544.277
10 0 59689  37902.000000  0    2004335.875  -5878913.174  -2988292.320
10 0 59689  38022.000000  0    1689103.533  -5515851.837  -3773589.115
10 0 59689  38142.000000  0    1351708.792  -5051047.763  -4492720.319
10 0 59689  38262.000000  0     999762.988  -4492367.767  -5133162.132
10 0 59689  38382.000000  0     640964.348  -3849424.401  -5683792.913
10 0 59689  38502.000000  0     282934.301  -3133400.908  -6135077.443
10 0 59689  38622.000000  0     -66939.758  -2356849.683  -6479220.847
10 0 59689  38742.000000  0    -401652.203  -1533468.897  -6710291.762
10 0 59689  38862.000000  0    -714714.730   -677861.353  -6824314.577
10 0 59689  38982.000000  0   -1000277.644    194721.491  -6819330.607
10 0 59689  39102.000000  0   -1253236.054   1068645.382  -6695426.798
10 0 59689  39222.000000  0   -1469318.983   1928166.116  -6454734.239
10 0 59689  39342.000000  0   -1645159.909   2757705.877  -6101395.444
10 0 59689  39462.000000  0   -1778349.100   3542130.930  -5641502.244
10 0 59689  39582.000000  0   -1867465.927   4267026.024  -5083000.789
10 0 59689  39702.000000  0   -1912091.098   4918961.344  -4435566.175
10 0 59689  39822.000000  0   -1912798.322   5485747.172  -3710444.821
10 0 59689  39942.000000  0   -1871124.473   5956669.350  -2920267.198
10 0 59689  40062.000000  0   -1789518.832   6322701.483  -2078834.448
10 0 59689  40182.000000  0   -1671273.116   6576689.758  -1200879.919
10 0 59689  40302.000000  0   -1520432.635   6713502.865   -301810.045
10 0 59689  40422.000000  0   -1341690.948   6730145.467    602569.358
10 0 59689  40542.000000  0   -1140269.939   6625830.939   1496339.950
10 0 59689  40662.000000  0    -921788.735   6402005.599   2363762.545
10 0 59689  40782.000000  0    -692124.437   6062326.884   3189562.242
10 0 59689  40902.000000  0    -457269.132   5612599.094   3959203.226
10 0 59689  41022.000000  0    -223187.139   5060668.480   4659149.451
10 0 59689  41142.000000  0       4325.525   4416274.966   5277107.605
10 0 59689  41262.000000  0     219775.986   3690868.715   5802238.280
10 0 59689  41382.000000  0     418098.513   2897399.838   6225343.213
10 0 59689  41502.000000  0     594766.517   2050078.866   6539021.044
10 0 59689  41622.000000  0     745890.359   1164117.602   6737790.615
10 0 59689  41742.000000  0     868299.039    255452.980   6818180.791
10 0 59689  41862.000000  0     959604.503   -659538.850   6778786.819
10 0 59689  41982.000000  0    1018247.466  -1564336.972   6620294.677
10 0 59689  42102.000000  0    1043524.128  -2442573.678   6345470.188
10 0 59689  42222.000000  0    1035593.348  -3278331.352   5959114.418
10 0 59689  42342.000000  0     995463.323  -4056433.374   5467983.274
10 0 59689  42462.000000  0     924959.868  -4762721.678   4880674.302
10 0 59689  42582.000000  0     826676.355  -5384319.464   4207483.327
10 0 59689  42702.000000  0     703905.530  -5909875.548   3460229.446
10 0 59689  42822.000000  0     560554.461  -6329782.231   2652049.232
10 0 59689  42942.000000  0     401044.194  -6636360.806   1797164.775
10 0 59689  43062.000000  0     230196.700  -6824010.578    910630.478
10 0 59689  43182.000000  0      53111.999  -6889319.963      8061.935
10 0 59689  43302.000000  0    -124962.413  -6831132.117   -894649.621
10 0 59689  43422.000000  0    -298764.654  -6650562.836  -1781626.889
10 0 59689  43542.000000  0    -463151.174  -6350973.224  -2637293.013
10 0 59689  43662.000000  0    -613226.027  -5937899.151  -3446650.758
10 0 59689  43782.000000  0    -744463.753  -5418937.988  -4195548.937
10 0 59689  43902.000000  0    -852822.382  -4803595.369  -4870929.270
10 0 59689  44022.000000  0    -934844.047  -4103098.640  -5461048.706
10 0 59689  44142.000000  0    -987741.128  -3330181.728  -5955675.594
10 0 59689  44262.000000  0   -1009466.132  -2498846.076  -6346257.032
10 0 59689  44382.000000  0    -998764.413  -1624102.580  -6626055.417
10 0 59689  44502.000000  0    -955209.118   -721700.540  -6790253.374
10 0 59689  44622.000000  0    -879218.057    192152.574  -6836028.125
10 0 59689  44742.000000  0    -772051.303   1101076.313  -6762593.634
10 0 59689  44862.000000  0    -635790.561   1988803.043  -6571212.391
10 0 59689  44982.000000  0    -473300.905   2839461.562  -6265176.246
10 0 59689  45102.000000  0    -288174.325   3637855.903  -5849757.387
10 0 59689  45222.000000  0     -84655.681   4369735.482  -5332126.775
10 0 59689  45342.000000  0     132447.149   5022050.385  -4721241.350
10 0 59689  45462.000000  0     357867.449   5583190.113  -4027700.606
10 0 59689  45582.000000  0     585996.954   6043199.450  -3263572.069
10 0 59689  45702.000000  0     811013.741   6393966.169  -2442188.528
10 0 59689  45822.000000  0    1027018.218   6629377.003  -1577919.428
10 0 59689  45942.000000  0    1228173.983   6745436.768   -685919.189
10 0 59689  46062.000000  0    1408850.332   6740346.637    218142.646
10 0 59689  46182.000000  0    1563762.399   6614537.896   1118363.713
10 0 59689  46302.000000  0    1688104.395   6370661.138   1998896.130
10 0 59689  46422.000000  0    1777673.895   6013532.010   2844233.500
10 0 59689  46542.000000  0    1828983.652   5550033.930   3639491.630
10 0 59689  46662.000000  0    1839357.609   4988979.581   4370677.866
10 0 59689  46782.000000  0    1807009.044   4340934.111   5024941.536
10 0 59689  46902.000000  0    1731098.576   3618004.267   5590800.608
10 0 59689  47022.000000  0    1611770.937   2833603.671   6058337.832
10 0 59689  47142.000000  0    1450171.213   2002197.916   6419370.410
10 0 59689  47262.000000  0    1248439.065   1139032.126   6667587.895
10 0 59689  47382.000000  0    1009681.637    259847.914   6798655.470
10 0 59689  47502.000000  0     737925.840   -619402.772   6810284.344
10 0 59689  47622.000000  0     438050.311  -1482846.475   6702270.996
10 0 59689  47742.000000  0     115697.694  -2314974.858   6476500.600
10 0 59689  47862.000000  0    -222831.399  -3100923.762   6136916.255
10 0 59689  47982.000000  0    -570699.799  -3826740.093   5689452.080
10 0 59689  48102.000000  0    -920668.472  -4479630.149   5141934.479
10 0 59689  48222.000000  0   -1265243.817  -5048189.875   4503954.256
10 0 59689  48342.000000  0   -1596836.027  -5522613.880   3786705.333
10 0 59689  48462.000000  0   -1907923.248  -5894874.758   3002790.440
10 0 59689  48582.000000  0   -2191218.584  -6158867.581   2165999.625
10 0 59689  48702.000000  0   -2439836.125  -6310517.571   1291065.153
10 0 59689  48822.000000  0   -2647450.569  -6347847.996    393396.411
99
